COMMENT,ORIGINATOR,NORAD_CAT_ID,OBJECT_NAME,OBJECT_TYPE,CLASSIFICATION_TYPE,INTLDES,EPOCH,EPOCH_MICROSECONDS,MEAN_MOTION,ECCENTRICITY,INCLINATION,RA_OF_ASC_NODE,ARG_OF_PERICENTER,MEAN_ANOMALY,EPHEMERIS_TYPE,ELEMENT_SET_NO,REV_AT_EPOCH,BSTAR,MEAN_MOTION_DOT,MEAN_MOTION_DDOT,FILE,TLE_LINE0,TLE_LINE1,TLE_LINE2,OBJECT_ID,OBJECT_NUMBER,SEMIMAJOR_AXIS,PERIOD,APOGEE,PERIGEE,DECAYED
"GENERATED VIA SPACETRACK.ORG API","18 SPCS","51110","STARLINK-3344","PAYLOAD","U","22005G","2023-11-07 00:02:22","754400","15.08799564","0.0001299","53.2165","161.5032","85.9856","274.1285","0","999","10000","-0.00089241","-0.00014447","0","4076432","0 STARLINK-3344","1 51110U 22005G   23311.00165225 -.00014447  00000-0 -89241-3 0  9997","2 51110  53.2165 161.5032 0001299  85.9856 274.1285 15.08799564100006","2022-005G","51110","6918.004","95.440","540.768","538.970","0"
"GENERATED VIA SPACETRACK.ORG API","18 SPCS","51110","STARLINK-3344","PAYLOAD","U","22005G","2023-11-07 20:42:25","195968","15.08808017","0.0001408","53.2165","157.6389","88.3332","271.7822","0","999","10124","0.00033063","0.00004973","0","4076813","0 STARLINK-3344","1 51110U 22005G   23311.86279162  .00004973  00000-0  33063-3 0  9999","2 51110  53.2165 157.6389 0001408  88.3332 271.7822 15.08808017101246","2022-005G","51110","6917.978","95.440","540.817","538.869","0"
"GENERATED VIA SPACETRACK.ORG API","18 SPCS","51110","STARLINK-3344","PAYLOAD","U","22005G","2023-11-07 20:42:25","195968","15.08808017","0.0001408","53.2165","157.6389","88.3332","271.7822","0","999","10013","0.00033063","0.00004973","0","4078352","0 STARLINK-3344","1 51110U 22005G   23311.86279162  .00004973  00000-0  33063-3 0  9999","2 51110  53.2165 157.6389 0001408  88.3332 271.7822 15.08808017100133","2022-005G","51110","6917.978","95.440","540.817","538.869","0"
"GENERATED VIA SPACETRACK.ORG API","18 SPCS","51110","STARLINK-3344","PAYLOAD","U","22005G","2023-11-08 20:33:12","110688","15.08866722","0.0001209","53.2165","153.1779","86.0106","274.1024","0","999","10139","0.0015049","0.00023761","0","4078612","0 STARLINK-3344","1 51110U 22005G   23312.85639017  .00023761  00000-0  15049-2 0  9997","2 51110  53.2165 153.1779 0001209  86.0106 274.1024 15.08866722101397","2022-005G","51110","6917.799","95.436","540.500","538.827","0"
"GENERATED VIA SPACETRACK.ORG API","18 SPCS","51110","STARLINK-3344","PAYLOAD","U","22005G","2023-11-08 20:33:12","110688","15.08866722","0.0001209","53.2165","153.1779","86.0106","274.1024","0","999","10028","0.0015049","0.00023761","0","4078917","0 STARLINK-3344","1 51110U 22005G   23312.85639017  .00023761  00000-0  15049-2 0  9997","2 51110  53.2165 153.1779 0001209  86.0106 274.1024 15.08866722100284","2022-005G","51110","6917.799","95.436","540.500","538.827","0"
"GENERATED VIA SPACETRACK.ORG API","18 SPCS","51110","STARLINK-3344","PAYLOAD","U","22005G","2023-11-09 06:05:30","399648","15.08868781","0.0001185","53.216","151.3942","85.3799","274.7328","0","999","10145","0.00089688","0.00014026","0","4079783","0 STARLINK-3344","1 51110U 22005G   23313.25382407  .00014026  00000-0  89688-3 0  9995","2 51110  53.2160 151.3942 0001185  85.3799 274.7328 15.08868781101454","2022-005G","51110","6917.792","95.436","540.477","538.838","0"
"GENERATED VIA SPACETRACK.ORG API","18 SPCS","51110","STARLINK-3344","PAYLOAD","U","22005G","2023-11-09 06:05:30","399648","15.08868781","0.0001185","53.216","151.3942","85.3799","274.7328","0","999","10034","0.00089688","0.00014026","0","4080359","0 STARLINK-3344","1 51110U 22005G   23313.25382407  .00014026  00000-0  89688-3 0  9995","2 51110  53.2160 151.3942 0001185  85.3799 274.7328 15.08868781100341","2022-005G","51110","6917.792","95.436","540.477","538.838","0"
"GENERATED VIA SPACETRACK.ORG API","18 SPCS","51110","STARLINK-3344","PAYLOAD","U","22005G","2023-11-09 20:23:57","630912","15.08872521","0.0001195","53.2158","148.7174","87.4158","272.6971","0","999","10154","0.00047366","0.00007265","0","4080710","0 STARLINK-3344","1 51110U 22005G   23313.84997258  .00007265  00000-0  47366-3 0  9990","2 51110  53.2158 148.7174 0001195  87.4158 272.6971 15.08872521101549","2022-005G","51110","6917.781","95.435","540.473","538.819","0"
"GENERATED VIA SPACETRACK.ORG API","18 SPCS","51110","STARLINK-3344","PAYLOAD","U","22005G","2023-11-09 20:23:57","630912","15.08872521","0.0001195","53.2158","148.7174","87.4158","272.6971","0","999","10043","0.00047366","0.00007265","0","4080838","0 STARLINK-3344","1 51110U 22005G   23313.84997258  .00007265  00000-0  47366-3 0  9990","2 51110  53.2158 148.7174 0001195  87.4158 272.6971 15.08872521100436","2022-005G","51110","6917.781","95.435","540.473","538.819","0"
"GENERATED VIA SPACETRACK.ORG API","18 SPCS","51110","STARLINK-3344","PAYLOAD","U","22005G","2023-11-10 05:56:16","128096","15.08866323","0.0001342","53.2158","146.9341","93.4322","266.6824","0","999","10160","0.0001408","0.00001955","0","4081804","0 STARLINK-3344","1 51110U 22005G   23314.24740889  .00001955  00000-0  14080-3 0  9998","2 51110  53.2158 146.9341 0001342  93.4322 266.6824 15.08866323101609","2022-005G","51110","6917.800","95.436","540.593","538.737","0"
"GENERATED VIA SPACETRACK.ORG API","18 SPCS","51110","STARLINK-3344","PAYLOAD","U","22005G","2023-11-10 05:56:16","128096","15.08866323","0.0001342","53.2158","146.9341","93.4322","266.6824","0","999","10049","0.0001408","0.00001955","0","4082124","0 STARLINK-3344","1 51110U 22005G   23314.24740889  .00001955  00000-0  14080-3 0  9998","2 51110  53.2158 146.9341 0001342  93.4322 266.6824 15.08866323100495","2022-005G","51110","6917.800","95.436","540.593","538.737","0"
"GENERATED VIA SPACETRACK.ORG API","18 SPCS","51110","STARLINK-3344","PAYLOAD","U","22005G","2023-11-10 20:14:44","596608","15.08847961","0.0001571","53.2155","144.2554","89.0213","271.0959","0","999","10169","-0.00014121","-0.00002535","0","4082271","0 STARLINK-3344","1 51110U 22005G   23314.84357172 -.00002535  00000-0 -14121-3 0  9996","2 51110  53.2155 144.2554 0001571  89.0213 271.0959 15.08847961101692","2022-005G","51110","6917.856","95.437","540.808","538.634","0"
"GENERATED VIA SPACETRACK.ORG API","18 SPCS","51110","STARLINK-3344","PAYLOAD","U","22005G","2023-11-10 20:14:44","596608","15.08847961","0.0001571","53.2155","144.2554","89.0213","271.0959","0","999","10058","-0.00014121","-0.00002535","0","4082691","0 STARLINK-3344","1 51110U 22005G   23314.84357172 -.00002535  00000-0 -14121-3 0  9996","2 51110  53.2155 144.2554 0001571  89.0213 271.0959 15.08847961100589","2022-005G","51110","6917.856","95.437","540.808","538.634","0"
"GENERATED VIA SPACETRACK.ORG API","18 SPCS","51110","STARLINK-3344","PAYLOAD","U","22005G","2023-11-11 12:08:35","890944","15.08844646","0.000166","53.2154","141.281","81.3815","278.7365","0","999","10068","-0.000092838","-0.00001765","0","4083845","0 STARLINK-3344","1 51110U 22005G   23315.50597096 -.00001765  00000-0 -92838-4 0  9997","2 51110  53.2154 141.2810 0001660  81.3815 278.7365 15.08844646100685","2022-005G","51110","6917.866","95.437","540.880","538.583","0"
"GENERATED VIA SPACETRACK.ORG API","18 SPCS","51110","STARLINK-3344","PAYLOAD","U","22005G","2023-11-11 20:05:31","382592","15.08848119","0.0001574","53.2156","139.7952","103.3598","256.757","0","999","10073","-0.000037244","-0.00000881","0","4084458","0 STARLINK-3344","1 51110U 22005G   23315.83716878 -.00000881  00000-0 -37244-4 0  9992","2 51110  53.2156 139.7952 0001574 103.3598 256.7570 15.08848119100732","2022-005G","51110","6917.856","95.437","540.809","538.632","0"
"GENERATED VIA SPACETRACK.ORG API","18 SPCS","51110","STARLINK-3344","PAYLOAD","U","22005G","2023-11-12 11:59:22","993152","15.08841656","0.0001407","53.2165","136.822","91.4337","268.6816","0","999","10194","0.00013991","0.0000194","0","4085392","0 STARLINK-3344","1 51110U 22005G   23316.49957168  .00001940  00000-0  13991-3 0  9991","2 51110  53.2165 136.8220 0001407  91.4337 268.6816 15.08841656101949","2022-005G","51110","6917.875","95.437","540.714","538.767","0"
"GENERATED VIA SPACETRACK.ORG API","18 SPCS","51110","STARLINK-3344","PAYLOAD","U","22005G","2023-11-12 11:59:22","993152","15.08841656","0.0001407","53.2165","136.822","91.4337","268.6816","0","999","10083","0.00013991","0.0000194","0","4085556","0 STARLINK-3344","1 51110U 22005G   23316.49957168  .00001940  00000-0  13991-3 0  9991","2 51110  53.2165 136.8220 0001407  91.4337 268.6816 15.08841656100836","2022-005G","51110","6917.875","95.437","540.714","538.767","0"
"GENERATED VIA SPACETRACK.ORG API","18 SPCS","51110","STARLINK-3344","PAYLOAD","U","22005G","2023-11-12 18:20:55","360896","15.08844408","0.00014","53.2164","135.6325","92.2799","267.8353","0","999","10087","0.00015529","0.00002185","0","4086163","0 STARLINK-3344","1 51110U 22005G   23316.76452964  .00002185  00000-0  15529-3 0  9996","2 51110  53.2164 135.6325 0001400  92.2799 267.8353 15.08844408100871","2022-005G","51110","6917.867","95.437","540.700","538.763","0"
"GENERATED VIA SPACETRACK.ORG API","18 SPCS","51110","STARLINK-3344","PAYLOAD","U","22005G","2023-11-13 11:50:09","789504","15.08845127","0.0001394","53.2164","132.3613","91.8178","268.2974","0","999","10098","0.000093553","0.00001201","0","4087425","0 STARLINK-3344","1 51110U 22005G   23317.49316886  .00001201  00000-0  93553-4 0  9991","2 51110  53.2164 132.3613 0001394  91.8178 268.2974 15.08845127100988","2022-005G","51110","6917.865","95.437","540.694","538.765","0"
"GENERATED VIA SPACETRACK.ORG API","18 SPCS","51110","STARLINK-3344","PAYLOAD","U","22005G","2023-11-13 18:11:42","240192","15.088456","0.0001393","53.2164","131.1718","91.607","268.5082","0","999","10213","0.000088507","0.00001121","0","4087665","0 STARLINK-3344","1 51110U 22005G   23317.75812778  .00001121  00000-0  88507-4 0  9995","2 51110  53.2164 131.1718 0001393  91.6070 268.5082 15.08845600102137","2022-005G","51110","6917.863","95.437","540.692","538.765","0"
